NORAD_CAT_ID,OBJECT_NAME,OBJECT_TYPE,EPOCH,MEAN_MOTION,ECCENTRICITY,INCLINATION,RA_OF_ASC_NODE,ARG_OF_PERICENTER,MEAN_ANOMALY,BSTAR,MEAN_MOTION_DOT,MEAN_MOTION_DDOT,TLE_LINE0,TLE_LINE1,TLE_LINE2,SEMIMAJOR_AXIS,PERIOD,APOGEE,PERIGEE,DECAYED
53858.0,STARLINK-4798,PAYLOAD,2023-04-16 03:17:32,15.08843586,0.000123,53.217,356.3448,85.3785,274.7348,0.00012204,1.655e-05,0.0,0 STARLINK-4798,1 53858U 22114AS  23106.13718265  .00001655  00000-0  12204-3 0  9993,2 53858  53.2170 356.3448 0001230  85.3785 274.7348 15.08843586 33306,6917.869,95.437,540.585,538.884,0.0
53858.0,STARLINK-4798,PAYLOAD,2023-04-16 20:46:47,15.08838188,0.0001036,53.2152,353.0734,103.5515,256.5593,0.00017067,2.429e-05,0.0,0 STARLINK-4798,1 53858U 22114AS  23106.86582715  .00002429  00000-0  17067-3 0  9994,2 53858  53.2152 353.0734 0001036 103.5515 256.5593 15.08838188 32879,6917.886,95.438,540.468,539.034,0.0
53858.0,STARLINK-4798,PAYLOAD,2023-04-17 01:32:56,15.0884838,0.0001092,53.2156,352.1818,104.5615,255.5498,0.00038893,5.909e-05,0.0,0 STARLINK-4798,1 53858U 22114AS  23107.06454622  .00005909  00000-0  38893-3 0  9998,2 53858  53.2156 352.1818 0001092 104.5615 255.5498 15.08848380 32902,6917.855,95.437,540.475,538.964,0.0
53858.0,STARLINK-4798,PAYLOAD,2023-04-17 20:37:34,15.08838081,0.0001212,53.2171,348.6129,98.4687,261.6443,0.00014523,2.024e-05,0.0,0 STARLINK-4798,1 53858U 22114AS  23107.85943143  .00002024  00000-0  14523-3 0  9995,2 53858  53.2171 348.6129 0001212  98.4687 261.6443 15.08838081 33027,6917.886,95.438,540.59,538.913,0.0
53858.0,STARLINK-4798,PAYLOAD,2023-04-17 22:12:57,15.0883887,0.0001057,53.2163,348.3159,109.7448,250.3658,0.00016146,2.283e-05,0.0,0 STARLINK-4798,1 53858U 22114AS  23107.92567083  .00002283  00000-0  16146-3 0  9998,2 53858  53.2163 348.3159 0001057 109.7448 250.3658 15.08838870 33575,6917.884,95.438,540.48,539.018,0.0
53858.0,STARLINK-4798,PAYLOAD,2023-04-18 01:23:44,15.08843026,0.0001067,53.2161,347.7211,106.7697,253.3412,0.00028291,4.218e-05,0.0,0 STARLINK-4798,1 53858U 22114AS  23108.05815017  .00004218  00000-0  28291-3 0  9990,2 53858  53.2161 347.7211 0001067 106.7697 253.3412 15.08843026 33591,6917.871,95.437,540.474,538.998,0.0
53858.0,STARLINK-4798,PAYLOAD,2023-04-18 22:03:45,15.08840135,0.0001062,53.2157,343.8556,104.2497,255.8613,0.00019743,2.856e-05,0.0,0 STARLINK-4798,1 53858U 22114AS  23108.91927413  .00002856  00000-0  19743-3 0  9997,2 53858  53.2157 343.8556 0001062 104.2497 255.8613 15.08840135 33184,6917.88,95.438,540.48,539.01,0.0
53858.0,STARLINK-4798,PAYLOAD,2023-04-19 01:14:31,15.08846174,0.0001065,53.2163,343.2601,108.1921,251.9187,0.00028444,4.243e-05,0.0,0 STARLINK-4798,1 53858U 22114AS  23109.05175116  .00004243  00000-0  28444-3 0  9998,2 53858  53.2163 343.2601 0001065 108.1921 251.9187 15.08846174 33748,6917.862,95.437,540.463,538.99,0.0
53858.0,STARLINK-4798,PAYLOAD,2023-04-19 21:54:32,15.08848882,8.2e-05,53.214,339.397,64.8836,295.2241,0.00026082,3.867e-05,0.0,0 STARLINK-4798,1 53858U 22114AS  23109.91287119  .00003867  00000-0  26082-3 0  9997,2 53858  53.2140 339.3970 0000820  64.8836 295.2241 15.08848882 33873,6917.853,95.437,540.286,539.151,0.0
53858.0,STARLINK-4798,PAYLOAD,2023-04-20 01:05:18,15.08853672,0.0001012,53.2161,338.7999,83.0481,277.0626,0.00034294,5.176e-05,0.0,0 STARLINK-4798,1 53858U 22114AS  23110.04534780  .00005176  00000-0  34294-3 0  9991,2 53858  53.2161 338.7999 0001012  83.0481 277.0626 15.08853672 33354,6917.839,95.437,540.404,539.004,0.0
53858.0,STARLINK-4798,PAYLOAD,2023-04-20 21:45:19,15.08837691,7.01e-05,53.2152,334.9363,71.8254,288.2814,-5.8902e-05,-1.225e-05,0.0,0 STARLINK-4798,1 53858U 22114AS  23110.90647276 -.00001225  00000-0 -58902-4 0  9997,2 53858  53.2152 334.9363 0000701  71.8254 288.2814 15.08837691 34025,6917.887,95.438,540.237,539.268,0.0
53858.0,STARLINK-4798,PAYLOAD,2023-04-21 00:56:05,15.08842276,9.76e-05,53.2157,334.3401,82.4556,277.6547,6.3256e-05,7.19e-06,0.0,0 STARLINK-4798,1 53858U 22114AS  23111.03895194  .00000719  00000-0  63256-4 0  9999,2 53858  53.2157 334.3401 0000976  82.4556 277.6547 15.08842276 33506,6917.873,95.437,540.414,539.063,0.0
53858.0,STARLINK-4798,PAYLOAD,2023-04-21 07:17:38,15.08840175,9.27e-05,53.2151,333.1504,77.88,282.2296,5.8444e-05,6.43e-06,0.0,0 STARLINK-4798,1 53858U 22114AS  23111.30391295  .00000643  00000-0  58444-4 0  9991,2 53858  53.2151 333.1504 0000927  77.8800 282.2296 15.08840175 34080,6917.88,95.438,540.386,539.104,0.0
53858.0,STARLINK-4798,PAYLOAD,2023-04-21 21:36:06,15.08843401,6.42e-05,53.2154,330.4744,73.6637,286.4426,6.5495e-05,7.55e-06,0.0,0 STARLINK-4798,1 53858U 22114AS  23111.90006973  .00000755  00000-0  65495-4 0  9991,2 53858  53.2154 330.4744 0000642  73.6637 286.4426 15.08843401 34171,6917.87,95.437,540.179,539.291,0.0
53858.0,STARLINK-4798,PAYLOAD,2023-04-22 00:46:52,15.08849551,0.0001218,53.2156,329.8798,88.9306,271.1826,0.0001876,2.7e-05,0.0,0 STARLINK-4798,1 53858U 22114AS  23112.03254793  .00002700  00000-0  18760-3 0  9995,2 53858  53.2156 329.8798 0001218  88.9306 271.1826 15.08849551 34195,6917.851,95.437,540.559,538.874,0.0
53858.0,STARLINK-4798,PAYLOAD,2023-04-22 15:05:20,15.08841637,0.0001307,53.215,327.2029,95.0256,265.0885,8.1583e-05,1.011e-05,0.0,0 STARLINK-4798,1 53858U 22114AS  23112.62871203  .00001011  00000-0  81583-4 0  9999,2 53858  53.2150 327.2029 0001307  95.0256 265.0885 15.08841637 33744,6917.875,95.437,540.645,538.836,0.0
53858.0,STARLINK-4798,PAYLOAD,2023-04-22 21:26:53,15.08841874,0.0001395,53.2151,326.0136,97.9739,262.1411,6.7745e-05,7.9e-06,0.0,0 STARLINK-4798,1 53858U 22114AS  23112.89367208  .00000790  00000-0  67745-4 0  9990,2 53858  53.2151 326.0136 0001395  97.9739 262.1411 15.08841874 34326,6917.875,95.437,540.705,538.775,0.0
53858.0,STARLINK-4798,PAYLOAD,2023-04-23 13:20:45,15.08833356,0.0001048,53.2151,323.0388,90.3991,269.7121,-2.9857e-05,-7.63e-06,0.0,0 STARLINK-4798,1 53858U 22114AS  23113.55607794 -.00000763  00000-0 -29857-4 0  9995,2 53858  53.2151 323.0388 0001048  90.3991 269.7121 15.08833356 34422,6917.901,95.438,540.491,539.041,0.0
53858.0,STARLINK-4798,PAYLOAD,2023-04-23 14:56:08,15.08835535,0.00011,53.2162,322.7437,95.667,264.4448,-1.6283e-05,-5.47e-06,0.0,0 STARLINK-4798,1 53858U 22114AS  23113.62231853 -.00000547  00000-0 -16283-4 0  9991,2 53858  53.2162 322.7437 0001100  95.6670 264.4448 15.08835535 33891,6917.894,95.438,540.52,538.998,0.0
53858.0,STARLINK-4798,PAYLOAD,2023-04-24 00:28:26,15.08844344,0.0001262,53.2152,320.9573,105.3453,254.7679,0.00014802,2.069e-05,0.0,0 STARLINK-4798,1 53858U 22114AS  23114.01975471  .00002069  00000-0  14802-3 0  9999,2 53858  53.2152 320.9573 0001262 105.3453 254.7679 15.08844344 33951,6917.867,95.437,540.605,538.859,0.0
53858.0,STARLINK-4798,PAYLOAD,2023-04-24 16:22:16,15.08872819,0.0001037,53.2155,317.9841,86.6882,273.4229,0.0006307,9.773e-05,0.0,0 STARLINK-4798,1 53858U 22114AS  23114.68213872  .00009773  00000-0  63070-3 0  9992,2 53858  53.2155 317.9841 0001037  86.6882 273.4229 15.08872819 34054,6917.78,95.435,540.362,538.928,0.0
53858.0,STARLINK-4798,PAYLOAD,2023-04-25 13:02:19,15.08827612,9.95e-05,53.216,314.1184,63.0401,297.0693,-0.000234,-4.009e-05,0.0,0 STARLINK-4798,1 53858U 22114AS  23115.54327667 -.00004009  00000-0 -23400-3 0  9998,2 53858  53.2160 314.1184 0000995  63.0401 297.0693 15.08827612 34729,6917.918,95.438,540.472,539.095,0.0
53858.0,STARLINK-4798,PAYLOAD,2023-04-26 00:10:01,15.08813838,0.0001079,53.2148,312.0363,81.6566,278.4549,-0.00018136,-3.171e-05,0.0,0 STARLINK-4798,1 53858U 22114AS  23116.00696430 -.00003171  00000-0 -18136-3 0  9996,2 53858  53.2148 312.0363 0001079  81.6566 278.4549 15.08813838 34798,6917.96,95.439,540.572,539.079,0.0
53858.0,STARLINK-4798,PAYLOAD,2023-04-26 16:03:54,15.08836234,0.0001399,53.2152,309.0648,55.4172,304.6951,0.00093618,0.00014641,0.0,0 STARLINK-4798,1 53858U 22114AS  23116.66937697  .00014641  00000-0  93618-3 0  9991,2 53858  53.2152 309.0648 0001399  55.4172 304.6951 15.08836234 34897,6917.892,95.438,540.725,538.789,0.0
53858.0,STARLINK-4798,PAYLOAD,2023-04-27 12:43:55,15.08832623,0.0001448,53.215,305.1973,49.3472,310.7645,0.00033298,5.014e-05,0.0,0 STARLINK-4798,1 53858U 22114AS  23117.53050456  .00005014  00000-0  33298-3 0  9999,2 53858  53.2150 305.1973 0001448  49.3472 310.7645 15.08832623 35025,6917.903,95.438,540.77,538.766,0.0
53858.0,STARLINK-4798,PAYLOAD,2023-04-27 17:30:04,15.08845922,0.0001902,53.2149,304.3081,13.9738,346.1306,0.000713,0.00011079,0.0,0 STARLINK-4798,1 53858U 22114AS  23117.72922387  .00011079  00000-0  71300-3 0  9995,2 53858  53.2149 304.3081 0001902  13.9738 346.1306 15.08845922 34517,6917.862,95.437,541.043,538.412,0.0
53858.0,STARLINK-4798,PAYLOAD,2023-04-27 22:16:13,15.08857057,0.0001385,53.2149,303.4143,53.0192,307.0926,0.00086283,0.00013477,0.0,0 STARLINK-4798,1 53858U 22114AS  23117.92793921  .00013477  00000-0  86283-3 0  9997,2 53858  53.2149 303.4143 0001385  53.0192 307.0926 15.08857057 34549,6917.828,95.436,540.651,538.735,0.0
53858.0,STARLINK-4798,PAYLOAD,2023-04-29 04:28:32,15.08856948,0.0001419,53.2164,297.764,82.1766,277.9387,-0.00016392,-2.897e-05,0.0,0 STARLINK-4798,1 53858U 22114AS  23119.18648230 -.00002897  00000-0 -16392-3 0  9999,2 53858  53.2164 297.7640 0001419  82.1766 277.9387 15.08856948 34736,6917.829,95.436,540.675,538.712,0.0
53858.0,STARLINK-4798,PAYLOAD,2023-04-29 12:25:27,15.08851047,0.0001586,53.2167,296.2777,87.19,272.9274,-0.00014722,-2.631e-05,0.0,0 STARLINK-4798,1 53858U 22114AS  23119.51768158 -.00002631  00000-0 -14722-3 0  9999,2 53858  53.2167 296.2777 0001586  87.1900 272.9274 15.08851047 35325,6917.847,95.437,540.809,538.614,0.0
53858.0,STARLINK-4798,PAYLOAD,2023-04-30 10:40:51,15.08841681,0.0001373,53.215,292.1142,78.4196,281.6951,1.82e-05,2e-08,0.0,0 STARLINK-4798,1 53858U 22114AS  23120.44504219  .00000002  00000-0  18200-4 0  9993,2 53858  53.2150 292.1142 0001373  78.4196 281.6951 15.08841681 35469,6917.875,95.437,540.69,538.79,0.0
